{"type": "FeatureCollection", "features": [ {"type": "Feature", "properties": {"norad_id": 30741, "name": "FENGYUN 1C DEB", "group": "fengyun-1c-debris", "lat": -15.034889666459787, "lon": -4.396042099774091, "alt_km": 856.7749613343804, "timestamp": "2025-12-09T21:34:11.686436+00:00", "meta": {"OBJECT_NAME": "FENGYUN 1C DEB", "OBJECT_ID": "1999-025ATB", "EPOCH": "2025-12-09T12:10:00.805728", "MEAN_MOTION": 14.13231776, "ECCENTRICITY": 0.00069691, "INCLINATION": 98.6799, "RA_OF_ASC_NODE": 352.8724, "ARG_OF_PERICENTER": 125.0205, "MEAN_ANOMALY": 27.7538, "EPHEMERIS_TYPE": 0, "CLASSIFICATION_TYPE": "U", "NORAD_CAT_ID": 30741, "ELEMENT_SET_NO": 999, "REV_AT_EPOCH": 96773, "BSTAR": 0.00025461066, "MEAN_MOTION_DOT": 4.34e-06, "MEAN_MOTION_DDOT": 0}, "tle": {"line1": "1 30741U 99025ATB 25343.50695377  .00000434  00000+0  25461-3 0  9990", "line2": "2 30741  98.6799 352.8724 0006969 125.0205  27.7538 14.13231776967730"}}, "geometry": {"type": "Point", "coordinates": [-4.396042099774091, -15.034889666459787]}}, {"type": "Feature", "properties": {"norad_id": 30742, "name": "FENGYUN 1C DEB", "group": "fengyun-1c-debris", "lat": 13.081462964351674, "lon": 26.290582782152722, "alt_km": 897.6009031682579, "timestamp": "2025-12-09T21:34:11.686447+00:00", "meta": {"OBJECT_NAME": "FENGYUN 1C DEB", "OBJECT_ID": "1999-025ATC", "EPOCH": "2025-12-09T15:25:38.826336", "MEAN_MOTION": 14.10345515, "ECCENTRICITY": 0.00708775, "INCLINATION": 98.8684, "RA_OF_ASC_NODE": 28.1173, "ARG_OF_PERICENTER": 235.3877, "MEAN_ANOMALY": 278.7001, "EPHEMERIS_TYPE": 0, "CLASSIFICATION_TYPE": "U", "NORAD_CAT_ID": 30742, "ELEMENT_SET_NO": 999, "REV_AT_EPOCH": 95998, "BSTAR": 0.0023608168, "MEAN_MOTION_DOT": 4.248e-05, "MEAN_MOTION_DDOT": 0}, "tle": {"line1": "1 30742U 99025ATC 25343.64281049  .00004248  00000+0  23608-2 0  9990", "line2": "2 30742  98.8684  28.1173 0070877 235.3877 278.7001 14.10345515959981"}}, "geometry": {"type": "Point", "coordinates": [26.290582782152722, 13.081462964351674]}}, {"type": "Feature", "properties": {"norad_id": 30744, "name": "FENGYUN 1C DEB", "group": "fengyun-1c-debris", "lat": 53.208749837549135, "lon": 117.8580149604846, "alt_km": 600.747969339588, "timestamp": "2025-12-09T21:34:11.686468+00:00", "meta": {"OBJECT_NAME": "FENGYUN 1C DEB", "OBJECT_ID": "1999-025ATE", "EPOCH": "2025-12-08T21:42:39.585312", "MEAN_MOTION": 14.88955563, "ECCENTRICITY": 0.0010201, "INCLINATION": 98.7316, "RA_OF_ASC_NODE": 128.6218, "ARG_OF_PERICENTER": 283.7413, "MEAN_ANOMALY": 204.6199, "EPHEMERIS_TYPE": 0, "CLASSIFICATION_TYPE": "U", "NORAD_CAT_ID": 30744, "ELEMENT_SET_NO": 999, "REV_AT_EPOCH": 98031, "BSTAR": 0.0060839, "MEAN_MOTION_DOT": 0.00057617, "MEAN_MOTION_DDOT": 0}, "tle": {"line1": "1 30744U 99025ATE 25342.90462483  .00057617  00000+0  60839-2 0  9998", "line2": "2 30744  98.7316 128.6218 0010201 283.7413 204.6199 14.88955563980310"}}, "geometry": {"type": "Point", "coordinates": [117.8580149604846, 53.208749837549135]}}, {"type": "Feature", "properties": {"norad_id": 30746, "name": "FENGYUN 1C DEB", "group": "fengyun-1c-debris", "lat": 6.842258700850221, "lon": -14.514447051468943, "alt_km": 831.7859106738733, "timestamp": "2025-12-09T21:34:11.686480+00:00", "meta": {"OBJECT_NAME": "FENGYUN 1C DEB", "OBJECT_ID": "1999-025ATG", "EPOCH": "2025-12-09T10:48:20.873376", "MEAN_MOTION": 14.27504622, "ECCENTRICITY": 0.00462834, "INCLINATION": 99.0575, "RA_OF_ASC_NODE": 163.9243, "ARG_OF_PERICENTER": 327.8333, "MEAN_ANOMALY": 61.7782, "EPHEMERIS_TYPE": 0, "CLASSIFICATION_TYPE": "U", "NORAD_CAT_ID": 30746, "ELEMENT_SET_NO": 999, "REV_AT_EPOCH": 97399, "BSTAR": 0.00077954919, "MEAN_MOTION_DOT": 1.89e-05, "MEAN_MOTION_DDOT": 0}, "tle": {"line1": "1 30746U 99025ATG 25343.45024159  .00001890  00000+0  77955-3 0  9995", "line2": "2 30746  99.0575 163.9243 0046283 327.8333  61.7782 14.27504622973998"}}, "geometry": {"type": "Point", "coordinates": [-14.514447051468943, 6.842258700850221]}}, {"type": "Feature", "properties": {"norad_id": 30749, "name": "FENGYUN 1C DEB", "group": "fengyun-1c-debris", "lat": 80.65750386653322, "lon": -97.20331951195178, "alt_km": 920.7233424899787, "timestamp": "2025-12-09T21:34:11.686491+00:00", "meta": {"OBJECT_NAME": "FENGYUN 1C DEB", "OBJECT_ID": "1999-025ATK", "EPOCH": "2025-12-09T12:32:47.471424", "MEAN_MOTION": 13.9983596, "ECCENTRICITY": 0.00551827, "INCLINATION": 98.8878, "RA_OF_ASC_NODE": 10.4208, "ARG_OF_PERICENTER": 241.455, "MEAN_ANOMALY": 118.1053, "EPHEMERIS_TYPE": 0, "CLASSIFICATION_TYPE": "U", "NORAD_CAT_ID": 30749, "ELEMENT_SET_NO": 999, "REV_AT_EPOCH": 95921, "BSTAR": 0.00020066791, "MEAN_MOTION_DOT": 2.55e-06, "MEAN_MOTION_DDOT": 0}, "tle": {"line1": "1 30749U 99025ATK 25343.52277166  .00000255  00000+0  20067-3 0  9990", "line2": "2 30749  98.8878  10.4208 0055182 241.4550 118.1053 13.99835960959218"}}, "geometry": {"type": "Point", "coordinates": [-97.20331951195178, 80.65750386653322]}}, {"type": "Feature", "properties": {"norad_id": 30750, "name": "FENGYUN 1C DEB", "group": "fengyun-1c-debris", "lat": 65.41283435830145, "lon": 38.309992005467485, "alt_km": 767.9101829465963, "timestamp": "2025-12-09T21:34:11.686501+00:00", "meta": {"OBJECT_NAME": "FENGYUN 1C DEB", "OBJECT_ID": "1999-025ATL", "EPOCH": "2025-12-09T04:42:35.410752", "MEAN_MOTION": 14.28554316, "ECCENTRICITY": 0.00410341, "INCLINATION": 98.9197, "RA_OF_ASC_NODE": 57.6658, "ARG_OF_PERICENTER": 110.2537, "MEAN_ANOMALY": 306.2921, "EPHEMERIS_TYPE": 0, "CLASSIFICATION_TYPE": "U", "NORAD_CAT_ID": 30750, "ELEMENT_SET_NO": 999, "REV_AT_EPOCH": 96731, "BSTAR": 0.0021343009, "MEAN_MOTION_DOT": 5.359e-05, "MEAN_MOTION_DDOT": 0}, "tle": {"line1": "1 30750U 99025ATL 25343.19624318  .00005359  00000+0  21343-2 0  9997", "line2": "2 30750  98.9197  57.6658 0041034 110.2537 306.2921 14.28554316967316"}}, "geometry": {"type": "Point", "coordinates": [38.309992005467485, 65.41283435830145]}}, {"type": "Feature", "properties": {"norad_id": 30751, "name": "FENGYUN 1C DEB", "group": "fengyun-1c-debris", "lat": -62.00662858932815, "lon": 60.17630816485627, "alt_km": 885.9942540998572, "timestamp": "2025-12-09T21:34:11.686511+00:00", "meta": {"OBJECT_NAME": "FENGYUN 1C DEB", "OBJECT_ID": "1999-025ATM", "EPOCH": "2025-12-09T15:48:11.584224", "MEAN_MOTION": 14.1517679, "ECCENTRICITY": 0.00526382, "INCLINATION": 98.8551, "RA_OF_ASC_NODE": 42.8839, "ARG_OF_PERICENTER": 105.2649, "MEAN_ANOMALY": 48.1309, "EPHEMERIS_TYPE": 0, "CLASSIFICATION_TYPE": "U", "NORAD_CAT_ID": 30751, "ELEMENT_SET_NO": 999, "REV_AT_EPOCH": 96232, "BSTAR": 0.0021075068, "MEAN_MOTION_DOT": 4.106e-05, "MEAN_MOTION_DDOT": 0}, "tle": {"line1": "1 30751U 99025ATM 25343.65846741  .00004106  00000+0  21075-2 0  9996", "line2": "2 30751  98.8551  42.8839 0052638 105.2649  48.1309 14.15176790962327"}}, "geometry": {"type": "Point", "coordinates": [60.17630816485627, -62.00662858932815]}}, {"type": "Feature", "properties": {"norad_id": 30753, "name": "FENGYUN 1C DEB", "group": "fengyun-1c-debris", "lat": 54.40750138552745, "lon": -144.95211732155047, "alt_km": 865.7952476678602, "timestamp": "2025-12-09T21:34:11.686543+00:00", "meta": {"OBJECT_NAME": "FENGYUN 1C DEB", "OBJECT_ID": "1999-025ATP", "EPOCH": "2025-12-09T14:11:07.561536", "MEAN_MOTION": 14.1262785, "ECCENTRICITY": 0.00554576, "INCLINATION": 98.8072, "RA_OF_ASC_NODE": 22.2354, "ARG_OF_PERICENTER": 4.2472, "MEAN_ANOMALY": 355.9159, "EPHEMERIS_TYPE": 0, "CLASSIFICATION_TYPE": "U", "NORAD_CAT_ID": 30753, "ELEMENT_SET_NO": 999, "REV_AT_EPOCH": 96307, "BSTAR": 0.001347687, "MEAN_MOTION_DOT": 2.489e-05, "MEAN_MOTION_DDOT": 0}, "tle": {"line1": "1 30753U 99025ATP 25343.59105974  .00002489  00000+0  13477-2 0  9996", "line2": "2 30753  98.8072  22.2354 0055457   4.2472 355.9159 14.12627850963075"}}, "geometry": {"type": "Point", "coordinates": [-144.95211732155047, 54.40750138552745]}}, {"type": "Feature", "properties": {"norad_id": 30755, "name": "FENGYUN 1C DEB", "group": "fengyun-1c-debris", "lat": -80.12315780966709, "lon": 35.06830817703182, "alt_km": 642.199225128943, "timestamp": "2025-12-09T21:34:11.686555+00:00", "meta": {"OBJECT_NAME": "FENGYUN 1C DEB", "OBJECT_ID": "1999-025ATR", "EPOCH": "2025-12-08T22:56:27.142080", "MEAN_MOTION": 14.44920854, "ECCENTRICITY": 0.015095, "INCLINATION": 98.2583, "RA_OF_ASC_NODE": 337.6236, "ARG_OF_PERICENTER": 280.7132, "MEAN_ANOMALY": 133.0786, "EPHEMERIS_TYPE": 0, "CLASSIFICATION_TYPE": "U", "NORAD_CAT_ID": 30755, "ELEMENT_SET_NO": 999, "REV_AT_EPOCH": 98390, "BSTAR": 0.00091196, "MEAN_MOTION_DOT": 3.605e-05, "MEAN_MOTION_DDOT": 0}, "tle": {"line1": "1 30755U 99025ATR 25342.95586970  .00003605  00000+0  91196-3 0  9992", "line2": "2 30755  98.2583 337.6236 0150950 280.7132 133.0786 14.44920854983908"}}, "geometry": {"type": "Point", "coordinates": [35.06830817703182, -80.12315780966709]}}, {"type": "Feature", "properties": {"norad_id": 30756, "name": "FENGYUN 1C DEB", "group": "fengyun-1c-debris", "lat": 19.862373515485444, "lon": -125.45336588266403, "alt_km": 880.5255850998255, "timestamp": "2025-12-09T21:34:11.686565+00:00", "meta": {"OBJECT_NAME": "FENGYUN 1C DEB", "OBJECT_ID": "1999-025ATS", "EPOCH": "2025-12-09T04:08:36.040704", "MEAN_MOTION": 14.18244731, "ECCENTRICITY": 0.00707612, "INCLINATION": 98.9909, "RA_OF_ASC_NODE": 50.5325, "ARG_OF_PERICENTER": 326.749, "MEAN_ANOMALY": 88.0276, "EPHEMERIS_TYPE": 0, "CLASSIFICATION_TYPE": "U", "NORAD_CAT_ID": 30756, "ELEMENT_SET_NO": 999, "REV_AT_EPOCH": 96354, "BSTAR": 0.0016460612, "MEAN_MOTION_DOT": 3.426e-05, "MEAN_MOTION_DDOT": 0}, "tle": {"line1": "1 30756U 99025ATS 25343.17263936  .00003426  00000+0  16461-2 0  9994", "line2": "2 30756  98.9909  50.5325 0070761 326.7490  88.0276 14.18244731963542"}}, "geometry": {"type": "Point", "coordinates": [-125.45336588266403, 19.862373515485444]}}]}